STARLINK-31474          
1 59304U 24056J   26068.43052589  .00002262  00000+0  91711-4 0  9990
2 59304  43.0036 225.3421 0001728 280.3945  79.6712 15.27574581111197
TEVEL2-6                
1 63215U 25052F   26068.64958975  .00021046  00000+0  70909-3 0  9996
2 63215  97.4016 325.0381 0004769  95.6604 264.5181 15.30760889 54861
